STARLINK-11103 [DTC]    
1 59718U 24088L   26002.52859478 -.00000975  00000+0 -31871-5 0  9997
2 59718  53.1596 292.2139 0001385  81.9830 278.1346 15.69714722 95880
STARLINK-11096 [DTC]    
1 59719U 24088M   26002.06830265 -.00001112  00000+0 -43204-5 0  9997
2 59719  53.1610 295.0514 0001095  87.2820 272.8323 15.69702469 95805
STARLINK-11095 [DTC]    
1 59720U 24088N   26002.20534538  .00000589  00000+0  97255-5 0  9999
2 59720  53.1607 293.7471 0001440  83.3312 276.7870 15.69706884 95835
STARLINK-31834          
1 59721U 24088P   26002.55287525  .00004973  00000+0  17989-3 0  9994
2 59721  53.1605  87.2970 0000958 111.3409 248.7694 15.30203390 93738
STARLINK-31843          
1 59722U 24088Q   26002.56342834 -.00001972  00000+0 -54418-4 0  9998
2 59722  53.1609  87.3577 0001679 105.5731 254.5455 15.30213799 93555
STARLINK-31766          
1 59723U 24088R   26002.60764037  .00000505  00000+0  29169-4 0  9991
2 59723  53.1603  86.9261 0001095 122.8622 237.2484 15.30187191 93565
STARLINK-31836          
1 59724U 24088S   26002.54654496  .00001273  00000+0  55132-4 0  9994
2 59724  53.1606  87.2564 0001035 117.5484 242.5622 15.30184983 93558
STARLINK-31820          
1 59725U 24088T   26002.62135751  .00003556  00000+0  13220-3 0  9999
2 59725  53.1608  87.0080 0001279 128.7433 231.3682 15.30182230 93566
STARLINK-31642          
1 59726U 24088U   26002.62557298  .00003456  00000+0  12880-3 0  9994
2 59726  53.1613  87.0350 0001486 116.0971 244.0183 15.30190233 93569
STARLINK-31827          
1 59727U 24088V   26002.63190758  .00002898  00000+0  10998-3 0  9997
2 59727  53.1591  87.0774 0000944  97.1101 263.0007 15.30187206 93682
STARLINK-31472          
1 59730U 24090A   26002.59786160  .00001758  00000+0  75185-4 0  9991
2 59730  43.0047 196.6357 0001176 259.5833 100.4886 15.26743375 93339
STARLINK-31817          
1 59731U 24090B   26002.58741424 -.00000786  00000+0 -19039-4 0  9993
2 59731  43.0009 196.5519 0001079 265.5743  94.4985 15.27575885 93338
STARLINK-31833          
1 59733U 24090D   26002.81569205  .00000237  00000+0  18137-4 0  9993
2 59733  43.0000 195.6810 0001353 265.9007  94.1690 15.27578528 93367
STARLINK-31849          
1 59734U 24090E   26002.80509638 -.00002495  00000+0 -81171-4 0  9995
2 59734  43.0012 188.6859 0000855 282.5826  77.4930 15.27583659 93447
STARLINK-31661          
1 59735U 24090F   26002.53198665  .00001414  00000+0  60899-4 0  9992
2 59735  42.9972 190.0709 0000961 253.1489 106.9257 15.27576744 93402
STARLINK-31707          
1 59736U 24090G   26002.53616529 -.00003376  00000+0 -11323-3 0  9995
2 59736  43.0029 197.0222 0001526 234.7327 125.3382 15.27575190 93328
