[{"OBJECT_NAME":"STARLINK-11103 [DTC]","OBJECT_ID":"2024-088L","EPOCH":"2026-01-02T12:41:10.588992","MEAN_MOTION":15.69714722,"ECCENTRICITY":0.00013851,"INCLINATION":53.1596,"RA_OF_ASC_NODE":292.2139,"ARG_OF_PERICENTER":81.983,"MEAN_ANOMALY":278.1346,"EPHEMERIS_TYPE":0,"CLASSIFICATION_TYPE":"U","NORAD_CAT_ID":59718,"ELEMENT_SET_NO":999,"REV_AT_EPOCH":9588,"BSTAR":-3.187116e-6,"MEAN_MOTION_DOT":-9.75e-6,"MEAN_MOTION_DDOT":0},{"OBJECT_NAME":"STARLINK-11096 [DTC]","OBJECT_ID":"2024-088M","EPOCH":"2026-01-02T01:38:21.348960","MEAN_MOTION":15.69702469,"ECCENTRICITY":0.00010953,"INCLINATION":53.161,"RA_OF_ASC_NODE":295.0514,"ARG_OF_PERICENTER":87.282,"MEAN_ANOMALY":272.8323,"EPHEMERIS_TYPE":0,"CLASSIFICATION_TYPE":"U","NORAD_CAT_ID":59719,"ELEMENT_SET_NO":999,"REV_AT_EPOCH":9580,"BSTAR":-4.320376e-6,"MEAN_MOTION_DOT":-1.112e-5,"MEAN_MOTION_DDOT":0},{"OBJECT_NAME":"STARLINK-11095 [DTC]","OBJECT_ID":"2024-088N","EPOCH":"2026-01-02T04:55:41.840832","MEAN_MOTION":15.69706884,"ECCENTRICITY":0.000144,"INCLINATION":53.1607,"RA_OF_ASC_NODE":293.7471,"ARG_OF_PERICENTER":83.3312,"MEAN_ANOMALY":276.787,"EPHEMERIS_TYPE":0,"CLASSIFICATION_TYPE":"U","NORAD_CAT_ID":59720,"ELEMENT_SET_NO":999,"REV_AT_EPOCH":9583,"BSTAR":9.7255e-6,"MEAN_MOTION_DOT":5.89e-6,"MEAN_MOTION_DDOT":0},{"OBJECT_NAME":"STARLINK-31834","OBJECT_ID":"2024-088P","EPOCH":"2026-01-02T13:16:08.421600","MEAN_MOTION":15.3020339,"ECCENTRICITY":9.585e-5,"INCLINATION":53.1605,"RA_OF_ASC_NODE":87.297,"ARG_OF_PERICENTER":111.3409,"MEAN_ANOMALY":248.7694,"EPHEMERIS_TYPE":0,"CLASSIFICATION_TYPE":"U","NORAD_CAT_ID":59721,"ELEMENT_SET_NO":999,"REV_AT_EPOCH":9373,"BSTAR":0.00017988601,"MEAN_MOTION_DOT":4.973e-5,"MEAN_MOTION_DDOT":0},{"OBJECT_NAME":"STARLINK-31843","OBJECT_ID":"2024-088Q","EPOCH":"2026-01-02T13:31:20.208576","MEAN_MOTION":15.30213799,"ECCENTRICITY":0.00016795,"INCLINATION":53.1609,"RA_OF_ASC_NODE":87.3577,"ARG_OF_PERICENTER":105.5731,"MEAN_ANOMALY":254.5455,"EPHEMERIS_TYPE":0,"CLASSIFICATION_TYPE":"U","NORAD_CAT_ID":59722,"ELEMENT_SET_NO":999,"REV_AT_EPOCH":9355,"BSTAR":-5.441786e-5,"MEAN_MOTION_DOT":-1.972e-5,"MEAN_MOTION_DDOT":0},{"OBJECT_NAME":"STARLINK-31766","OBJECT_ID":"2024-088R","EPOCH":"2026-01-02T14:35:00.127968","MEAN_MOTION":15.30187191,"ECCENTRICITY":0.00010954,"INCLINATION":53.1603,"RA_OF_ASC_NODE":86.9261,"ARG_OF_PERICENTER":122.8622,"MEAN_ANOMALY":237.2484,"EPHEMERIS_TYPE":0,"CLASSIFICATION_TYPE":"U","NORAD_CAT_ID":59723,"ELEMENT_SET_NO":999,"REV_AT_EPOCH":9356,"BSTAR":2.91689e-5,"MEAN_MOTION_DOT":5.05e-6,"MEAN_MOTION_DDOT":0},{"OBJECT_NAME":"STARLINK-31836","OBJECT_ID":"2024-088S","EPOCH":"2026-01-02T13:07:01.484544","MEAN_MOTION":15.30184983,"ECCENTRICITY":0.00010352,"INCLINATION":53.1606,"RA_OF_ASC_NODE":87.2564,"ARG_OF_PERICENTER":117.5484,"MEAN_ANOMALY":242.5622,"EPHEMERIS_TYPE":0,"CLASSIFICATION_TYPE":"U","NORAD_CAT_ID":59724,"ELEMENT_SET_NO":999,"REV_AT_EPOCH":9355,"BSTAR":5.5132287e-5,"MEAN_MOTION_DOT":1.273e-5,"MEAN_MOTION_DDOT":0},{"OBJECT_NAME":"STARLINK-31820","OBJECT_ID":"2024-088T","EPOCH":"2026-01-02T14:54:45.288864","MEAN_MOTION":15.3018223,"ECCENTRICITY":0.00012793,"INCLINATION":53.1608,"RA_OF_ASC_NODE":87.008,"ARG_OF_PERICENTER":128.7433,"MEAN_ANOMALY":231.3682,"EPHEMERIS_TYPE":0,"CLASSIFICATION_TYPE":"U","NORAD_CAT_ID":59725,"ELEMENT_SET_NO":999,"REV_AT_EPOCH":9356,"BSTAR":0.00013220148,"MEAN_MOTION_DOT":3.556e-5,"MEAN_MOTION_DDOT":0},{"OBJECT_NAME":"STARLINK-31642","OBJECT_ID":"2024-088U","EPOCH":"2026-01-02T15:00:49.505472","MEAN_MOTION":15.30190233,"ECCENTRICITY":0.00014866,"INCLINATION":53.1613,"RA_OF_ASC_NODE":87.035,"ARG_OF_PERICENTER":116.0971,"MEAN_ANOMALY":244.0183,"EPHEMERIS_TYPE":0,"CLASSIFICATION_TYPE":"U","NORAD_CAT_ID":59726,"ELEMENT_SET_NO":999,"REV_AT_EPOCH":9356,"BSTAR":0.00012880125,"MEAN_MOTION_DOT":3.456e-5,"MEAN_MOTION_DDOT":0},{"OBJECT_NAME":"STARLINK-31827","OBJECT_ID":"2024-088V","EPOCH":"2026-01-02T15:09:56.814912","MEAN_MOTION":15.30187206,"ECCENTRICITY":9.441e-5,"INCLINATION":53.1591,"RA_OF_ASC_NODE":87.0774,"ARG_OF_PERICENTER":97.1101,"MEAN_ANOMALY":263.0007,"EPHEMERIS_TYPE":0,"CLASSIFICATION_TYPE":"U","NORAD_CAT_ID":59727,"ELEMENT_SET_NO":999,"REV_AT_EPOCH":9368,"BSTAR":0.00010997649,"MEAN_MOTION_DOT":2.898e-5,"MEAN_MOTION_DDOT":0},{"OBJECT_NAME":"STARLINK-31472","OBJECT_ID":"2024-090A","EPOCH":"2026-01-02T14:20:55.242240","MEAN_MOTION":15.26743375,"ECCENTRICITY":0.00011766,"INCLINATION":43.0047,"RA_OF_ASC_NODE":196.6357,"ARG_OF_PERICENTER":259.5833,"MEAN_ANOMALY":100.4886,"EPHEMERIS_TYPE":0,"CLASSIFICATION_TYPE":"U","NORAD_CAT_ID":59730,"ELEMENT_SET_NO":999,"REV_AT_EPOCH":9333,"BSTAR":7.5184959e-5,"MEAN_MOTION_DOT":1.758e-5,"MEAN_MOTION_DDOT":0},{"OBJECT_NAME":"STARLINK-31817","OBJECT_ID":"2024-090B","EPOCH":"2026-01-02T14:05:52.590336","MEAN_MOTION":15.27575885,"ECCENTRICITY":0.00010791,"INCLINATION":43.0009,"RA_OF_ASC_NODE":196.5519,"ARG_OF_PERICENTER":265.5743,"MEAN_ANOMALY":94.4985,"EPHEMERIS_TYPE":0,"CLASSIFICATION_TYPE":"U","NORAD_CAT_ID":59731,"ELEMENT_SET_NO":999,"REV_AT_EPOCH":9333,"BSTAR":-1.9039045e-5,"MEAN_MOTION_DOT":-7.86e-6,"MEAN_MOTION_DDOT":0},{"OBJECT_NAME":"STARLINK-31833","OBJECT_ID":"2024-090D","EPOCH":"2026-01-02T19:34:35.793120","MEAN_MOTION":15.27578528,"ECCENTRICITY":0.0001353,"INCLINATION":43,"RA_OF_ASC_NODE":195.681,"ARG_OF_PERICENTER":265.9007,"MEAN_ANOMALY":94.169,"EPHEMERIS_TYPE":0,"CLASSIFICATION_TYPE":"U","NORAD_CAT_ID":59733,"ELEMENT_SET_NO":999,"REV_AT_EPOCH":9336,"BSTAR":1.8137e-5,"MEAN_MOTION_DOT":2.37e-6,"MEAN_MOTION_DDOT":0},{"OBJECT_NAME":"STARLINK-31849","OBJECT_ID":"2024-090E","EPOCH":"2026-01-02T19:19:20.327232","MEAN_MOTION":15.27583659,"ECCENTRICITY":8.55e-5,"INCLINATION":43.0012,"RA_OF_ASC_NODE":188.6859,"ARG_OF_PERICENTER":282.5826,"MEAN_ANOMALY":77.493,"EPHEMERIS_TYPE":0,"CLASSIFICATION_TYPE":"U","NORAD_CAT_ID":59734,"ELEMENT_SET_NO":999,"REV_AT_EPOCH":9344,"BSTAR":-8.1171e-5,"MEAN_MOTION_DOT":-2.495e-5,"MEAN_MOTION_DDOT":0},{"OBJECT_NAME":"STARLINK-31661","OBJECT_ID":"2024-090F","EPOCH":"2026-01-02T12:46:03.646560","MEAN_MOTION":15.27576744,"ECCENTRICITY":9.614e-5,"INCLINATION":42.9972,"RA_OF_ASC_NODE":190.0709,"ARG_OF_PERICENTER":253.1489,"MEAN_ANOMALY":106.9257,"EPHEMERIS_TYPE":0,"CLASSIFICATION_TYPE":"U","NORAD_CAT_ID":59735,"ELEMENT_SET_NO":999,"REV_AT_EPOCH":9340,"BSTAR":6.08989e-5,"MEAN_MOTION_DOT":1.414e-5,"MEAN_MOTION_DDOT":0},{"OBJECT_NAME":"STARLINK-31707","OBJECT_ID":"2024-090G","EPOCH":"2026-01-02T12:52:04.681056","MEAN_MOTION":15.2757519,"ECCENTRICITY":0.0001526,"INCLINATION":43.0029,"RA_OF_ASC_NODE":197.0222,"ARG_OF_PERICENTER":234.7327,"MEAN_ANOMALY":125.3382,"EPHEMERIS_TYPE":0,"CLASSIFICATION_TYPE":"U","NORAD_CAT_ID":59736,"ELEMENT_SET_NO":999,"REV_AT_EPOCH":9332,"BSTAR":-0.00011323109,"MEAN_MOTION_DOT":-3.376e-5,"MEAN_MOTION_DDOT":0}]
